[{"OBJECT_NAME":"STARLINK-30128","OBJECT_ID":"2023-079K","EPOCH":"2026-03-09T22:00:01.999584","MEAN_MOTION":15.1645424,"ECCENTRICITY":0.00012166,"INCLINATION":42.9995,"RA_OF_ASC_NODE":79.6064,"ARG_OF_PERICENTER":264.9817,"MEAN_ANOMALY":319.4479,"EPHEMERIS_TYPE":0,"CLASSIFICATION_TYPE":"U","NORAD_CAT_ID":56832,"ELEMENT_SET_NO":999,"REV_AT_EPOCH":572,"BSTAR":0.060668261,"MEAN_MOTION_DOT":0.0130306,"MEAN_MOTION_DDOT":0},{"OBJECT_NAME":"CZ-4C DEB","OBJECT_ID":"2015-069C","EPOCH":"2026-03-07T10:00:21.558816","MEAN_MOTION":15.31048021,"ECCENTRICITY":0.00583916,"INCLINATION":97.4862,"RA_OF_ASC_NODE":135.8649,"ARG_OF_PERICENTER":162.5456,"MEAN_ANOMALY":197.781,"EPHEMERIS_TYPE":0,"CLASSIFICATION_TYPE":"U","NORAD_CAT_ID":42670,"ELEMENT_SET_NO":999,"REV_AT_EPOCH":51749,"BSTAR":0.00045809658,"MEAN_MOTION_DOT":0.00014416,"MEAN_MOTION_DDOT":0}]
